{
  "type": "FeatureCollection",
  "name": "sample-merapi-contours",
  "crs": { "type": "name", "properties": { "name": "urn:ogc:def:crs:OGC:1.3:CRS84" } },
  "features": [
    {
      "type": "Feature",
      "properties": { "elev": 1200, "major": false },
      "geometry": {
        "type": "LineString",
        "coordinates": [
          [110.4380, -7.5340], [110.4420, -7.5332], [110.4460, -7.5330],
          [110.4500, -7.5335], [110.4540, -7.5348], [110.4565, -7.5370],
          [110.4570, -7.5400], [110.4560, -7.5435], [110.4535, -7.5465],
          [110.4495, -7.5480], [110.4450, -7.5482], [110.4410, -7.5475],
          [110.4375, -7.5455], [110.4360, -7.5420], [110.4365, -7.5380],
          [110.4380, -7.5340]
        ]
      }
    },
    {
      "type": "Feature",
      "properties": { "elev": 1400, "major": true },
      "geometry": {
        "type": "LineString",
        "coordinates": [
          [110.4400, -7.5360], [110.4435, -7.5352], [110.4470, -7.5350],
          [110.4505, -7.5358], [110.4530, -7.5375], [110.4540, -7.5400],
          [110.4532, -7.5428], [110.4508, -7.5448], [110.4475, -7.5455],
          [110.4440, -7.5452], [110.4410, -7.5438], [110.4395, -7.5410],
          [110.4395, -7.5380], [110.4400, -7.5360]
        ]
      }
    },
    {
      "type": "Feature",
      "properties": { "elev": 1600, "major": false },
      "geometry": {
        "type": "LineString",
        "coordinates": [
          [110.4420, -7.5378], [110.4445, -7.5372], [110.4470, -7.5372],
          [110.4495, -7.5380], [110.4508, -7.5395], [110.4510, -7.5412],
          [110.4500, -7.5428], [110.4480, -7.5438], [110.4455, -7.5438],
          [110.4432, -7.5428], [110.4420, -7.5410], [110.4418, -7.5392],
          [110.4420, -7.5378]
        ]
      }
    },
    {
      "type": "Feature",
      "properties": { "elev": 1800, "major": true },
      "geometry": {
        "type": "LineString",
        "coordinates": [
          [110.4435, -7.5390], [110.4455, -7.5386], [110.4475, -7.5390],
          [110.4485, -7.5402], [110.4482, -7.5415], [110.4468, -7.5422],
          [110.4448, -7.5420], [110.4435, -7.5408], [110.4435, -7.5390]
        ]
      }
    }
  ]
}
